[
    {
        "Altitude(m)": 562976.3099673283,
        "Argument of Periapsis(deg)": 0.013245982221427002,
        "Eccentricity": 0.0,
        "Inclination(deg)": 53.0,
        "Latitude(deg)": -31.23171779939541,
        "Longitude(deg)": 110.45236257398365,
        "Mean Anomaly(deg)": 220.18318573515515,
        "RAAN(deg)": 4.9802867370560335,
        "Satellite Name": "Starlink Shell 1 34",
        "Satellite Number": 34,
        "Semi-Major Axis(m)": 6931778.249405717,
        "Time(s)": 380
    },
    {
        "Altitude(m)": 563151.6178494706,
        "Argument of Periapsis(deg)": 0.013594560700938237,
        "Eccentricity": 0.0,
        "Inclination(deg)": 53.0,
        "Latitude(deg)": -31.67752085347739,
        "Longitude(deg)": 110.92668022324567,
        "Mean Anomaly(deg)": 220.81001693871187,
        "RAAN(deg)": 4.979767966978561,
        "Satellite Name": "Starlink Shell 1 34",
        "Satellite Number": 34,
        "Semi-Major Axis(m)": 6931778.249405717,
        "Time(s)": 390
    },
    {
        "Altitude(m)": 563326.8421431271,
        "Argument of Periapsis(deg)": 0.013943139180449475,
        "Eccentricity": 0.0,
        "Inclination(deg)": 53.0,
        "Latitude(deg)": -32.121176570303504,
        "Longitude(deg)": 111.40591686597442,
        "Mean Anomaly(deg)": 221.43684814226862,
        "RAAN(deg)": 4.979249196901089,
        "Satellite Name": "Starlink Shell 1 34",
        "Satellite Number": 34,
        "Semi-Major Axis(m)": 6931778.249405717,
        "Time(s)": 400
    },
    {
        "Altitude(m)": 563501.9166007848,
        "Argument of Periapsis(deg)": 0.014291717659960712,
        "Eccentricity": 0.0,
        "Inclination(deg)": 53.0,
        "Latitude(deg)": -32.562628273139254,
        "Longitude(deg)": 111.89018232942227,
        "Mean Anomaly(deg)": 222.0636793458253,
        "RAAN(deg)": 4.978730426823615,
        "Satellite Name": "Starlink Shell 1 34",
        "Satellite Number": 34,
        "Semi-Major Axis(m)": 6931778.249405717,
        "Time(s)": 410
    },
    {
        "Altitude(m)": 563676.7748956569,
        "Argument of Periapsis(deg)": 0.014640296139471948,
        "Eccentricity": 0.0,
        "Inclination(deg)": 53.0,
        "Latitude(deg)": -33.00181798459888,
        "Longitude(deg)": 112.3795870863459,
        "Mean Anomaly(deg)": 222.69051054938203,
        "RAAN(deg)": 4.978211656746142,
        "Satellite Name": "Starlink Shell 1 34",
        "Satellite Number": 34,
        "Semi-Major Axis(m)": 6931778.249405717,
        "Time(s)": 420
    },
    {
        "Altitude(m)": 563851.3506513851,
        "Argument of Periapsis(deg)": 0.014988874618983185,
        "Eccentricity": 0.0,
        "Inclination(deg)": 53.0,
        "Latitude(deg)": -33.43868639425111,
        "Longitude(deg)": 112.87424271872901,
        "Mean Anomaly(deg)": 223.31734175293875,
        "RAAN(deg)": 4.977692886668669,
        "Satellite Name": "Starlink Shell 1 34",
        "Satellite Number": 34,
        "Semi-Major Axis(m)": 6931778.249405717,
        "Time(s)": 430
    },
    {
        "Altitude(m)": 564025.5774717447,
        "Argument of Periapsis(deg)": 0.015337453098494424,
        "Eccentricity": 0.0,
        "Inclination(deg)": 53.0,
        "Latitude(deg)": -33.87317282618932,
        "Longitude(deg)": 113.3742623753707,
        "Mean Anomaly(deg)": 223.94417295649544,
        "RAAN(deg)": 4.977174116591197,
        "Satellite Name": "Starlink Shell 1 34",
        "Satellite Number": 34,
        "Semi-Major Axis(m)": 6931778.249405717,
        "Time(s)": 440
    },
    {
        "Altitude(m)": 564199.3889703497,
        "Argument of Periapsis(deg)": 0.01568603157800566,
        "Eccentricity": 0.0,
        "Inclination(deg)": 53.0,
        "Latitude(deg)": -34.3052152066411,
        "Longitude(deg)": 113.87975971003831,
        "Mean Anomaly(deg)": 224.57100416005218,
        "RAAN(deg)": 4.976655346513724,
        "Satellite Name": "Starlink Shell 1 34",
        "Satellite Number": 34,
        "Semi-Major Axis(m)": 6931778.249405717,
        "Time(s)": 450
    },
    {
        "Altitude(m)": 564372.7188003268,
        "Argument of Periapsis(deg)": 0.0160346100575169,
        "Eccentricity": 0.0,
        "Inclination(deg)": 53.0,
        "Latitude(deg)": -34.734750031702,
        "Longitude(deg)": 114.39084932547767,
        "Mean Anomaly(deg)": 225.19783536360885,
        "RAAN(deg)": 4.976136576436252,
        "Satellite Name": "Starlink Shell 1 34",
        "Satellite Number": 34,
        "Semi-Major Axis(m)": 6931778.249405717,
        "Time(s)": 460
    },
    {
        "Altitude(m)": 564545.500683988,
        "Argument of Periapsis(deg)": 0.016383188537028134,
        "Eccentricity": 0.0,
        "Inclination(deg)": 53.0,
        "Latitude(deg)": -35.16171233528432,
        "Longitude(deg)": 114.90764720993943,
        "Mean Anomaly(deg)": 225.8246665671656,
        "RAAN(deg)": 4.975617806358779,
        "Satellite Name": "Starlink Shell 1 34",
        "Satellite Number": 34,
        "Semi-Major Axis(m)": 6931778.249405717,
        "Time(s)": 470
    },
    {
        "Altitude(m)": 564717.6684424275,
        "Argument of Periapsis(deg)": 0.01673176701653937,
        "Eccentricity": 0.0,
        "Inclination(deg)": 53.0,
        "Latitude(deg)": -35.58603565738037,
        "Longitude(deg)": 115.43026965286093,
        "Mean Anomaly(deg)": 226.45149777072234,
        "RAAN(deg)": 4.975099036281305,
        "Satellite Name": "Starlink Shell 1 34",
        "Satellite Number": 34,
        "Semi-Major Axis(m)": 6931778.249405717,
        "Time(s)": 480
    },
    {
        "Altitude(m)": 564889.1560250716,
        "Argument of Periapsis(deg)": 0.017080345496050607,
        "Eccentricity": 0.0,
        "Inclination(deg)": 53.0,
        "Latitude(deg)": -36.007652012752864,
        "Longitude(deg)": 115.95883366494,
        "Mean Anomaly(deg)": 227.0783289742791,
        "RAAN(deg)": 4.974580266203832,
        "Satellite Name": "Starlink Shell 1 34",
        "Satellite Number": 34,
        "Semi-Major Axis(m)": 6931778.249405717,
        "Time(s)": 490
    },
    {
        "Altitude(m)": 565059.8975391774,
        "Argument of Periapsis(deg)": 0.017428923975561842,
        "Eccentricity": 0.0,
        "Inclination(deg)": 53.0,
        "Latitude(deg)": -36.42649186017172,
        "Longitude(deg)": 116.49345738920233,
        "Mean Anomaly(deg)": 227.70516017783578,
        "RAAN(deg)": 4.97406149612636,
        "Satellite Name": "Starlink Shell 1 34",
        "Satellite Number": 34,
        "Semi-Major Axis(m)": 6931778.249405717,
        "Time(s)": 500
    },
    {
        "Altitude(m)": 565229.8272792015,
        "Argument of Periapsis(deg)": 0.01777750245507308,
        "Eccentricity": 0.0,
        "Inclination(deg)": 53.0,
        "Latitude(deg)": -36.842484072327615,
        "Longitude(deg)": 117.0342589896507,
        "Mean Anomaly(deg)": 228.3319913813925,
        "RAAN(deg)": 4.973542726048887,
        "Satellite Name": "Starlink Shell 1 34",
        "Satellite Number": 34,
        "Semi-Major Axis(m)": 6931778.249405717,
        "Time(s)": 510
    },
    {
        "Altitude(m)": 565398.8797561212,
        "Argument of Periapsis(deg)": 0.018126080934584315,
        "Eccentricity": 0.0,
        "Inclination(deg)": 53.0,
        "Latitude(deg)": -37.25555590656624,
        "Longitude(deg)": 117.58135704267912,
        "Mean Anomaly(deg)": 228.95882258494913,
        "RAAN(deg)": 4.9730239559714144,
        "Satellite Name": "Starlink Shell 1 34",
        "Satellite Number": 34,
        "Semi-Major Axis(m)": 6931778.249405717,
        "Time(s)": 520
    },
    {
        "Altitude(m)": 565566.9897265907,
        "Argument of Periapsis(deg)": 0.018474659414095554,
        "Eccentricity": 0.0,
        "Inclination(deg)": 53.0,
        "Latitude(deg)": -37.66563297659783,
        "Longitude(deg)": 118.13487091781185,
        "Mean Anomaly(deg)": 229.58565378850588,
        "RAAN(deg)": 4.972505185893941,
        "Satellite Name": "Starlink Shell 1 34",
        "Satellite Number": 34,
        "Semi-Major Axis(m)": 6931778.249405717,
        "Time(s)": 530
    },
    {
        "Altitude(m)": 565734.0922220215,
        "Argument of Periapsis(deg)": 0.018823237893606792,
        "Eccentricity": 0.0,
        "Inclination(deg)": 53.0,
        "Latitude(deg)": -38.072639225346315,
        "Longitude(deg)": 118.6949196343107,
        "Mean Anomaly(deg)": 230.2124849920626,
        "RAAN(deg)": 4.971986415816469,
        "Satellite Name": "Starlink Shell 1 34",
        "Satellite Number": 34,
        "Semi-Major Axis(m)": 6931778.249405717,
        "Time(s)": 540
    },
    {
        "Altitude(m)": 565900.122577484,
        "Argument of Periapsis(deg)": 0.019171816373118027,
        "Eccentricity": 0.0,
        "Inclination(deg)": 53.0,
        "Latitude(deg)": -38.47649689912156,
        "Longitude(deg)": 119.26162221880367,
        "Mean Anomaly(deg)": 230.83931619561932,
        "RAAN(deg)": 4.971467645738996,
        "Satellite Name": "Starlink Shell 1 34",
        "Satellite Number": 34,
        "Semi-Major Axis(m)": 6931778.249405717,
        "Time(s)": 550
    },
    {
        "Altitude(m)": 566065.0164604818,
        "Argument of Periapsis(deg)": 0.019520394852629266,
        "Eccentricity": 0.0,
        "Inclination(deg)": 53.0,
        "Latitude(deg)": -38.87712652330609,
        "Longitude(deg)": 119.83509805046502,
        "Mean Anomaly(deg)": 231.46614739917607,
        "RAAN(deg)": 4.970948875661523,
        "Satellite Name": "Starlink Shell 1 34",
        "Satellite Number": 34,
        "Semi-Major Axis(m)": 6931778.249405717,
        "Time(s)": 560
    }
]